{
  "type": "FeatureCollection",
  "features": [
    {
      "type": "Feature",
      "properties": {
        "norad_id": 34972,
        "name": "COSMOS 2251 DEB",
        "group": "cosmos-2251-debris",
        "lat": 60.37074245662874,
        "lon": 75.43927187628361,
        "alt_km": 663.2358875957088,
        "timestamp": "2025-12-15T04:01:20.847727+00:00",
        "meta_object_name": "COSMOS 2251 DEB",
        "meta_object_id": "1993-036AFB",
        "meta_epoch": "2025-12-13T14:55:13.195200",
        "meta_mean_motion": 14.72905355,
        "meta_eccentricity": 0.00335804,
        "meta_inclination": 73.9887,
        "meta_ra_of_asc_node": 48.1347,
        "meta_arg_of_pericenter": 207.0311,
        "meta_mean_anomaly": 304.1293,
        "meta_ephemeris_type": 0,
        "meta_classification_type": "U",
        "meta_norad_cat_id": 34972,
        "meta_element_set_no": 999,
        "meta_rev_at_epoch": 87663,
        "meta_bstar": 0.00156938,
        "meta_mean_motion_dot": 0.00010131,
        "meta_mean_motion_ddot": 0,
        "tle_line1": "1 34972U 93036AFB 25347.62168050  .00010131  00000+0  15694-2 0  9997",
        "tle_line2": "2 34972  73.9887  48.1347 0033580 207.0311 304.1293 14.72905355876632"
      },
      "geometry": {
        "type": "Point",
        "coordinates": [
          75.43927187628361,
          60.37074245662874
        ]
      }
    },
    {
      "type": "Feature",
      "properties": {
        "norad_id": 34976,
        "name": "COSMOS 2251 DEB",
        "group": "cosmos-2251-debris",
        "lat": -10.382559233841961,
        "lon": 124.50071048599398,
        "alt_km": 674.7203753184704,
        "timestamp": "2025-12-15T04:01:20.847738+00:00",
        "meta_object_name": "COSMOS 2251 DEB",
        "meta_object_id": "1993-036AFF",
        "meta_epoch": "2025-12-13T14:17:16.255392",
        "meta_mean_motion": 14.76594044,
        "meta_eccentricity": 0.00478037,
        "meta_inclination": 74.0574,
        "meta_ra_of_asc_node": 304.5737,
        "meta_arg_of_pericenter": 351.1956,
        "meta_mean_anomaly": 125.2716,
        "meta_ephemeris_type": 0,
        "meta_classification_type": "U",
        "meta_norad_cat_id": 34976,
        "meta_element_set_no": 999,
        "meta_rev_at_epoch": 88286,
        "meta_bstar": 0.0019348412,
        "meta_mean_motion_dot": 0.0001376,
        "meta_mean_motion_ddot": 0,
        "tle_line1": "1 34976U 93036AFF 25347.59532703  .00013760  00000+0  19348-2 0  9998",
        "tle_line2": "2 34976  74.0574 304.5737 0047803 351.1956 125.2716 14.76594044882869"
      },
      "geometry": {
        "type": "Point",
        "coordinates": [
          124.50071048599398,
          -10.382559233841961
        ]
      }
    },
    {
      "type": "Feature",
      "properties": {
        "norad_id": 34979,
        "name": "COSMOS 2251 DEB",
        "group": "cosmos-2251-debris",
        "lat": -72.63786130358413,
        "lon": 148.7434444171721,
        "alt_km": 630.0609759230056,
        "timestamp": "2025-12-15T04:01:20.847748+00:00",
        "meta_object_name": "COSMOS 2251 DEB",
        "meta_object_id": "1993-036AFJ",
        "meta_epoch": "2025-12-13T19:59:51.046080",
        "meta_mean_motion": 14.79384637,
        "meta_eccentricity": 0.00490737,
        "meta_inclination": 74.0396,
        "meta_ra_of_asc_node": 265.1118,
        "meta_arg_of_pericenter": 342.7793,
        "meta_mean_anomaly": 17.1715,
        "meta_ephemeris_type": 0,
        "meta_classification_type": "U",
        "meta_norad_cat_id": 34979,
        "meta_element_set_no": 999,
        "meta_rev_at_epoch": 88236,
        "meta_bstar": 0.0014769456,
        "meta_mean_motion_dot": 0.00011222,
        "meta_mean_motion_ddot": 0,
        "tle_line1": "1 34979U 93036AFJ 25347.83322970  .00011222  00000+0  14769-2 0  9994",
        "tle_line2": "2 34979  74.0396 265.1118 0049073 342.7793  17.1715 14.79384637882366"
      },
      "geometry": {
        "type": "Point",
        "coordinates": [
          148.7434444171721,
          -72.63786130358413
        ]
      }
    },
    {
      "type": "Feature",
      "properties": {
        "norad_id": 34990,
        "name": "COSMOS 2251 DEB",
        "group": "cosmos-2251-debris",
        "lat": 42.51702385753152,
        "lon": -97.95883441841903,
        "alt_km": 747.9436783011115,
        "timestamp": "2025-12-15T04:01:20.847758+00:00",
        "meta_object_name": "COSMOS 2251 DEB",
        "meta_object_id": "1993-036AFN",
        "meta_epoch": "2025-12-13T23:31:06.015936",
        "meta_mean_motion": 14.42379588,
        "meta_eccentricity": 0.00165206,
        "meta_inclination": 74.0455,
        "meta_ra_of_asc_node": 249.0358,
        "meta_arg_of_pericenter": 311.5177,
        "meta_mean_anomaly": 48.4561,
        "meta_ephemeris_type": 0,
        "meta_classification_type": "U",
        "meta_norad_cat_id": 34990,
        "meta_element_set_no": 999,
        "meta_rev_at_epoch": 87364,
        "meta_bstar": 0.0004974881,
        "meta_mean_motion_dot": 1.621e-05,
        "meta_mean_motion_ddot": 0,
        "tle_line1": "1 34990U 93036AFN 25347.97993074  .00001621  00000+0  49749-3 0  9990",
        "tle_line2": "2 34990  74.0455 249.0358 0016520 311.5177  48.4561 14.42379588873649"
      },
      "geometry": {
        "type": "Point",
        "coordinates": [
          -97.95883441841903,
          42.51702385753152
        ]
      }
    },
    {
      "type": "Feature",
      "properties": {
        "norad_id": 34997,
        "name": "COSMOS 2251 DEB",
        "group": "cosmos-2251-debris",
        "lat": -54.04706931114055,
        "lon": 150.12514225161746,
        "alt_km": 696.230784836579,
        "timestamp": "2025-12-15T04:01:20.847768+00:00",
        "meta_object_name": "COSMOS 2251 DEB",
        "meta_object_id": "1993-036AFV",
        "meta_epoch": "2025-12-14T03:40:01.084512",
        "meta_mean_motion": 14.45585468,
        "meta_eccentricity": 0.00977103,
        "meta_inclination": 73.8806,
        "meta_ra_of_asc_node": 308.5363,
        "meta_arg_of_pericenter": 283.3348,
        "meta_mean_anomaly": 75.6929,
        "meta_ephemeris_type": 0,
        "meta_classification_type": "U",
        "meta_norad_cat_id": 34997,
        "meta_element_set_no": 999,
        "meta_rev_at_epoch": 70767,
        "meta_bstar": 0.0019000145,
        "meta_mean_motion_dot": 7.095e-05,
        "meta_mean_motion_ddot": 0,
        "tle_line1": "1 34997U 93036AFV 25348.15279033  .00007095  00000+0  19000-2 0  9997",
        "tle_line2": "2 34997  73.8806 308.5363 0097710 283.3348  75.6929 14.45585468707674"
      },
      "geometry": {
        "type": "Point",
        "coordinates": [
          150.12514225161746,
          -54.04706931114055
        ]
      }
    },
    {
      "type": "Feature",
      "properties": {
        "norad_id": 34998,
        "name": "COSMOS 2251 DEB",
        "group": "cosmos-2251-debris",
        "lat": 29.09225254749811,
        "lon": -33.757198047852825,
        "alt_km": 739.3508224980696,
        "timestamp": "2025-12-15T04:01:20.847779+00:00",
        "meta_object_name": "COSMOS 2251 DEB",
        "meta_object_id": "1993-036AFW",
        "meta_epoch": "2025-12-13T22:12:36.791712",
        "meta_mean_motion": 14.49287964,
        "meta_eccentricity": 0.00211796,
        "meta_inclination": 74.0097,
        "meta_ra_of_asc_node": 157.7564,
        "meta_arg_of_pericenter": 303.0269,
        "meta_mean_anomaly": 208.2517,
        "meta_ephemeris_type": 0,
        "meta_classification_type": "U",
        "meta_norad_cat_id": 34998,
        "meta_element_set_no": 999,
        "meta_rev_at_epoch": 87437,
        "meta_bstar": 0.00072323889,
        "meta_mean_motion_dot": 2.74e-05,
        "meta_mean_motion_ddot": 0,
        "tle_line1": "1 34998U 93036AFW 25347.92542583  .00002740  00000+0  72324-3 0  9996",
        "tle_line2": "2 34998  74.0097 157.7564 0021179 303.0269 208.2517 14.49287964874378"
      },
      "geometry": {
        "type": "Point",
        "coordinates": [
          -33.757198047852825,
          29.09225254749811
        ]
      }
    },
    {
      "type": "Feature",
      "properties": {
        "norad_id": 35000,
        "name": "COSMOS 2251 DEB",
        "group": "cosmos-2251-debris",
        "lat": 53.693605936658464,
        "lon": -144.8699808729309,
        "alt_km": 213.89780878291094,
        "timestamp": "2025-12-15T04:01:20.847789+00:00",
        "meta_object_name": "COSMOS 2251 DEB",
        "meta_object_id": "1993-036AFY",
        "meta_epoch": "2025-12-10T00:39:45.535104",
        "meta_mean_motion": 15.84722247,
        "meta_eccentricity": 0.00096992,
        "meta_inclination": 73.9939,
        "meta_ra_of_asc_node": 204.1935,
        "meta_arg_of_pericenter": 175.3945,
        "meta_mean_anomaly": 184.7377,
        "meta_ephemeris_type": 0,
        "meta_classification_type": "U",
        "meta_norad_cat_id": 35000,
        "meta_element_set_no": 999,
        "meta_rev_at_epoch": 88472,
        "meta_bstar": 0.007821664,
        "meta_mean_motion_dot": 0.0209211,
        "meta_mean_motion_ddot": 0,
        "tle_line1": "1 35000U 93036AFY 25344.02761036  .02092110  00000+0  78217-2 0  9993",
        "tle_line2": "2 35000  73.9939 204.1935 0009699 175.3945 184.7377 15.84722247884729"
      },
      "geometry": {
        "type": "Point",
        "coordinates": [
          -144.8699808729309,
          53.693605936658464
        ]
      }
    }
  ]
}